#aV2013  3 22  0  0  0.00000000     288 DD+AD WGS84 FIT  NGA
## 1732 432000.00000000   300.00000000 56373 0.0000000000000
+   31     1  2  3  4  5  6  7  8  9 10 11 12 13 14 15 16 17
+         18 19 20 21 22 23 24 25 26 28 29 30 31 32  0  0  0
+          0  0  0  0  0  0  0  0  0  0  0  0  0  0  0  0  0
+          0  0  0  0  0  0  0  0  0  0  0  0  0  0  0  0  0
+          0  0  0  0  0  0  0  0  0  0  0  0  0  0  0  0  0
++         2  2  2  2  2  2  2  2  2  2  2  2  2  2  2  2  2
++         2  2  2  2  2  2  2  2  2  2  2  2  2  2  2  0  0
++         0  0  0  0  0  0  0  0  0  0  0  0  0  0  0  0  0
++         0  0  0  0  0  0  0  0  0  0  0  0  0  0  0  0  0
++         0  0  0  0  0  0  0  0  0  0  0  0  0  0  0  0  0
%c cc cc ccc ccc cccc cccc cccc cccc ccccc ccccc ccccc ccccc
%c cc cc ccc ccc cccc cccc cccc cccc ccccc ccccc ccccc ccccc
%f  0.0000000  0.000000000  0.00000000000  0.000000000000000
%f  0.0000000  0.000000000  0.00000000000  0.000000000000000
%i    0    0    0    0      0      0      0      0         0
%i    0    0    0    0      0      0      0      0         0
/*      NGA, ST. LOUIS,MO.                                  
/*   EPHEMERIS COMPUTED FROM  1 DAYS OF DATA
/*   EPOCHA SMOOTHER  
/* CCCCCCCCCCCCCCCCCCCCCCCCCCCCCCCCCCCCCCCCCCCCCCCCCCCCCCCCC
*  2013  3 22 21 25  0.00000000                                                 
P  1 -21125.280886 -14014.208377  -8073.292163      9.625963                    
V  1  10452.989153   1210.000245 -29443.010940      0.031685                    
P  2    202.294251  16460.865177  21109.680953    423.541733                    
V  2 -25003.802915  -8374.480402   6318.356958      0.018922                    
P  3   3100.009370 -21100.096914 -16197.643604    184.208737                    
V  3  15193.795418 -12953.298667  20653.819386      0.051813                    
P  4 -14228.760498  10169.782612  19785.615261    168.902975                    
V  4 -23689.578125 -10145.849869 -11375.807520      0.109224                    
P  5   2038.654607  26204.738582   3212.972511   -388.869915                    
V  5  -3916.437379  -3543.868455  31233.538934     -0.014828                    
P  6  10009.906231 -21237.692249 -11975.708350    304.260165                    
V  6  13526.909227  -8255.844034  26101.677868     -0.152471                    
P  7 -25326.683696  -5335.096069  -6567.997197    194.191381                    
V  7  -6975.925305  -4950.254954  30444.348085      0.043338                    
P  8 -21500.182498    543.060786 -15865.473529      5.263098                    
V  8 -17502.072551  -9783.611103  22659.807015      0.001761                    
P  9  -1006.599897  15349.065543 -22183.896112    228.763216                    
V  9 -25241.322888  -9067.980986  -5317.724004      0.026275                    
P 10  -9887.855685  17376.109984  16987.252770    -74.204082                    
V 10  -5568.538404 -21767.911473  19118.218121     -0.013380                    
P 11 -16903.825261 -13907.792327 -15654.257025   -365.019088                    
V 11  19433.745093  -1694.226153 -19756.168192     -0.036572                    
P 12  11251.133876  20567.046691  12657.832207    124.294013                    
V 12    547.273750  16067.279232 -26335.468265      0.020637                    
P 13 -20345.837055    -88.774366  16994.109719    135.590197                    
V 13  17373.823164 -13171.803505  20443.889899     -0.029660                    
P 14  21895.074221 -14865.759921   -767.403132    221.007350                    
V 14    459.302736   2743.444332 -32135.776150      0.000973                    
P 15   7284.435013  14169.227299 -21254.341274   -112.477496                    
V 15 -20824.430134  17235.619693   4612.639756     -0.013714                    
P 16   -219.535268 -26045.241639   4144.152110   -252.620936                    
V 16   2920.855019   5014.520888  31910.011446      0.000100                    
P 17 -21066.765475  15958.474880     36.112902     37.619346                    
V 17  -1582.686329  -2444.667187 -31998.178482     -0.038717                    
P 18  15697.149536  -1462.430558 -20992.289323    245.170719                    
V 18   4451.092981  27338.926165   1047.930342      0.018479                    
P 19  -2836.058191 -15862.182565 -21120.996960   -358.598150                    
V 19  22609.991971 -14249.308416   8105.406847     -0.031748                    
P 20 -14255.527236 -17756.430493  13557.246559     89.382842                    
V 20   -862.854737 -17785.841974 -23817.959908      0.017635                    
P 21  24898.848942   2112.161918  -9198.221949   -287.587707                    
V 21  10455.141145   7234.833451  27732.029003     -0.022153                    
P 22  11980.858620 -14250.204925 -18705.879041    161.955115                    
V 22   5753.421786  23708.032643 -14371.943479      0.013772                    
P 23 -14691.704862  -7263.207580  21031.604962    102.447106                    
V 23  20356.290945 -16983.464582   7995.626724     -0.036516                    
P 24  18630.501000  15262.944785 -11248.738467     -3.143492                    
V 24 -14221.421518  -2653.244013 -27132.482070     -0.007135                    
P 25  15182.055883   9625.549102  19543.026005     80.280132                    
V 25   3148.913856  24665.012896 -14470.095999      0.034492                    
P 26  -6438.393277  18912.689460 -17964.049248    -56.492938                    
V 26 -18675.829150  11003.220562  19300.116726      0.147233                    
P 28 -12686.022296   9909.982336 -20504.979830    243.282777                    
V 28  -3838.921147 -27111.168809 -10609.358466      0.033261                    
P 29  20395.353109   -450.681090  17039.988370    419.286610                    
V 29 -16284.923619  14192.628306  19975.877614      0.036693                    
P 30   3981.340075 -22115.332302  13824.519922   -201.646502                    
V 30   6858.474559  16935.233136  24475.086071      0.061578                    
P 31  11218.663864 -11061.645364  21601.848124    307.596012                    
V 31  24811.062588  10419.979055  -7338.741556      0.016230                    
P 32  -7814.798203 -24332.809089   8292.344095   -545.125098                    
V 32   1702.562139 -10368.823071 -28811.133715     -0.027885                    
EOF
